[{"OBJECT_NAME":"STARLINK-31191","OBJECT_ID":"2024-012P","EPOCH":"2026-03-09T07:49:36.776640","MEAN_MOTION":15.27576274,"ECCENTRICITY":6.114e-5,"INCLINATION":42.9995,"RA_OF_ASC_NODE":167.0192,"ARG_OF_PERICENTER":223.2336,"MEAN_ANOMALY":136.8468,"EPHEMERIS_TYPE":0,"CLASSIFICATION_TYPE":"U","NORAD_CAT_ID":58800,"ELEMENT_SET_NO":999,"REV_AT_EPOCH":12118,"BSTAR":-9.4376727e-5,"MEAN_MOTION_DOT":-2.857e-5,"MEAN_MOTION_DDOT":0},{"OBJECT_NAME":"HERMES-5","OBJECT_ID":"2025-052BQ","EPOCH":"2026-03-09T22:33:51.245280","MEAN_MOTION":15.26210393,"ECCENTRICITY":0.0006071,"INCLINATION":97.4082,"RA_OF_ASC_NODE":324.1247,"ARG_OF_PERICENTER":124.4334,"MEAN_ANOMALY":235.7479,"EPHEMERIS_TYPE":0,"CLASSIFICATION_TYPE":"U","NORAD_CAT_ID":63834,"ELEMENT_SET_NO":999,"REV_AT_EPOCH":5480,"BSTAR":0.00068450239,"MEAN_MOTION_DOT":0.00017673,"MEAN_MOTION_DDOT":0}]
